norad_id,name,regime,epoch,line1,line2,inclination,eccentricity,mean_motion,raan,arg_pericenter,mean_anomaly
25049,SIRIUS 2 (GE-1E),GEO,22032.29702203,1 25049U 97071A   22032.29702203 -.00000254  00000-0  00000-0 0    14\,2 25049   9.3203  44.7654 0004147 337.0869  19.6819  0.99409349 88244,9.3203,0.0004147,0.99409349,44.7654,337.0869,19.6819
25049,SIRIUS 2 (GE-1E),GEO,22032.76534191,1 25049U 97071A   22032.76534191 -.00000263  00000-0  00000+0 0  9822\,2 25049   9.3211  44.7625 0004178 337.2719 187.1016  0.99409349 88331,9.3211,0.0004178,0.99409349,44.7625,337.2719,187.1016
25049,SIRIUS 2 (GE-1E),GEO,22032.83703531,1 25049U 97071A   22032.83703531 -.00000265  00000-0  00000-0 0    11\,2 25049   9.3212  44.7620 0004182 337.3043 212.7277  0.99409358 88258,9.3212,0.0004182,0.99409358,44.762,337.3043,212.7277
25049,SIRIUS 2 (GE-1E),GEO,22033.39075473,1 25049U 97071A   22033.39075473 -.00000275  00000-0  00000-0 0    11\,2 25049   9.3221  44.7586 0004218 337.6320  50.5685  0.99409346 88269,9.3221,0.0004218,0.99409346,44.7586,337.632,50.5685
25049,SIRIUS 2 (GE-1E),GEO,22033.84116691,1 25049U 97071A   22033.84116691 -.00000282  00000-0  00000-0 0    17\,2 25049   9.3228  44.7558 0004246 337.8101 211.5860  0.99409312 88262,9.3228,0.0004246,0.99409312,44.7558,337.8101,211.586
25049,SIRIUS 2 (GE-1E),GEO,22034.49988206,1 25049U 97071A   22034.49988206 -.00000292  00000-0  00000-0 0    19\,2 25049   9.3239  44.7518 0004290 338.2148  86.9264  0.99409270 88271,9.3239,0.000429,0.9940927,44.7518,338.2148,86.9264
25049,SIRIUS 2 (GE-1E),GEO,22034.65224565,1 25049U 97071A   22034.65224565 -.00000294  00000-0  00000-0 0    10\,2 25049   9.3241  44.7508 0004300 338.2586 141.4110  0.99409251 88277,9.3241,0.00043,0.99409251,44.7508,338.2586,141.411
25049,SIRIUS 2 (GE-1E),GEO,22034.84535403,1 25049U 97071A   22034.84535403 -.00000297  00000-0  00000+0 0  9838\,2 25049   9.3244  44.7497 0004316 338.3768 210.4025  0.99409203 88355,9.3244,0.0004316,0.99409203,44.7497,338.3768,210.4025
25049,SIRIUS 2 (GE-1E),GEO,22035.48829924,1 25049U 97071A   22035.48829924 -.00000305  00000-0  00000-0 0    15\,2 25049   9.3255  44.7458 0004350 338.7523  80.1275  0.99409116 88289,9.3255,0.000435,0.99409116,44.7458,338.7523,80.1275
25049,SIRIUS 2 (GE-1E),GEO,22035.88349392,1 25049U 97071A   22035.88349392 -.00000309  00000-0  00000-0 0    19\,2 25049   9.3261  44.7434 0004381 338.9571 221.3563  0.99409042 88286,9.3261,0.0004381,0.99409042,44.7434,338.9571,221.3563
25049,SIRIUS 2 (GE-1E),GEO,22036.48241494,1 25049U 97071A   22036.48241494 -.00000314  00000-0  00000-0 0    16\,2 25049   9.3271  44.7398 0004408 339.2962  75.3618  0.99408931 88299,9.3271,0.0004408,0.99408931,44.7398,339.2962,75.3618
25049,SIRIUS 2 (GE-1E),GEO,22036.85362324,1 25049U 97071A   22036.85362324 -.00000317  00000-0  00000+0 0  9845\,2 25049   9.3277  44.7376 0004437 339.4781 208.0284  0.99408830 88375,9.3277,0.0004437,0.9940883,44.7376,339.4781,208.0284
25049,SIRIUS 2 (GE-1E),GEO,22037.50978819,1 25049U 97071A   22037.50978819 -.00000322  00000-0  00000-0 0    17\,2 25049   9.3288  44.7337 0004463 339.8384  82.4985  0.99408669 88301,9.3288,0.0004463,0.99408669,44.7337,339.8384,82.4985
25049,SIRIUS 2 (GE-1E),GEO,22037.85777845,1 25049U 97071A   22037.85777845 -.00000324  00000-0  00000-0 0    13\,2 25049   9.3294  44.7316 0004490 340.0231 206.8533  0.99408573 88305,9.3294,0.000449,0.99408573,44.7316,340.0231,206.8533
25049,SIRIUS 2 (GE-1E),GEO,22038.42485399,1 25049U 97071A   22038.42485399 -.00000326  00000-0  00000-0 0    19\,2 25049   9.3303  44.7283 0004513 340.3726  49.4495  0.99408393 88316,9.3303,0.0004513,0.99408393,44.7283,340.3726,49.4495
25049,SIRIUS 2 (GE-1E),GEO,22038.86197302,1 25049U 97071A   22038.86197302 -.00000327  00000-0  00000+0 0  9852\,2 25049   9.3311  44.7257 0004546 340.6043 205.6547  0.99408262 88394,9.3311,0.0004546,0.99408262,44.7257,340.6043,205.6547
25049,SIRIUS 2 (GE-1E),GEO,22039.36402472,1 25049U 97071A   22039.36402472 -.00000328  00000-0  00000-0 0    16\,2 25049   9.3319  44.7227 0004561 340.8816  25.0524  0.99408094 88321,9.3319,0.0004561,0.99408094,44.7227,340.8816,25.0524
25049,SIRIUS 2 (GE-1E),GEO,22040.36803178,1 25049U 97071A   22040.36803178 -.00000328  00000-0  00000-0 0    16\,2 25049   9.3336  44.7168 0004607 341.3721  23.8748  0.99407701 88335,9.3336,0.0004607,0.99407701,44.7168,341.3721,23.8748
25049,SIRIUS 2 (GE-1E),GEO,22040.89841045,1 25049U 97071A   22040.89841045 -.00000327  00000-0  00000+0 0  9869\,2 25049   9.3344  44.7137 0004647 341.6732 213.3839  0.99407471 88419,9.3344,0.0004647,0.99407471,44.7137,341.6732,213.3839
25049,SIRIUS 2 (GE-1E),GEO,22041.37214073,1 25049U 97071A   22041.37214073 -.00000326  00000-0  00000-0 0    16\,2 25049   9.3352  44.7109 0004657 341.8690  22.7259  0.99407276 88346,9.3352,0.0004657,0.99407276,44.7109,341.869,22.7259
25049,SIRIUS 2 (GE-1E),GEO,22041.83461175,1 25049U 97071A   22041.83461175 -.00000324  00000-0  00000-0 0    12\,2 25049   9.3360  44.7082 0004692 342.1160 187.9854  0.99407049 88343,9.336,0.0004692,0.99407049,44.7082,342.116,187.9854
25049,SIRIUS 2 (GE-1E),GEO,22042.42549240,1 25049U 97071A   22042.42549240 -.00000320  00000-0  00000-0 0    14\,2 25049   9.3370  44.7047 0004711 342.3670  39.1976  0.99406807 88350,9.337,0.0004711,0.99406807,44.7047,342.367,39.1976
25049,SIRIUS 2 (GE-1E),GEO,22042.84856816,1 25049U 97071A   22042.84856816 -.00000317  00000-0  00000-0 0    16\,2 25049   9.3377  44.7022 0004736 342.5778 190.3955  0.99406625 88353,9.3377,0.0004736,0.99406625,44.7022,342.5778,190.3955
25049,SIRIUS 2 (GE-1E),GEO,22042.90969351,1 25049U 97071A   22042.90969351 -.00000316  00000-0  00000+0 0  9873\,2 25049   9.3378  44.7018 0004732 342.5769 212.2710  0.99406576 88432,9.3378,0.0004732,0.99406576,44.7018,342.5769,212.271
25049,SIRIUS 2 (GE-1E),GEO,22043.38043639,1 25049U 97071A   22043.38043639 -.00000313  00000-0  00000-0 0    13\,2 25049   9.3386  44.6990 0004743 342.7104  20.6053  0.99406370 88361,9.3386,0.0004743,0.9940637,44.699,342.7104,20.6053
25049,SIRIUS 2 (GE-1E),GEO,22043.86507791,1 25049U 97071A   22043.86507791 -.00000308  00000-0  00000-0 0    14\,2 25049   9.3394  44.6962 0004769 342.9415 193.8141  0.99406130 88369,9.3394,0.0004769,0.9940613,44.6962,342.9415,193.8141
25049,SIRIUS 2 (GE-1E),GEO,22044.38459211,1 25049U 97071A   22044.38459211 -.00000302  00000-0  00000-0 0    19\,2 25049   9.3402  44.6931 0004786 343.1112  19.5652  0.99405889 88373,9.3402,0.0004786,0.99405889,44.6931,343.1112,19.5652
25049,SIRIUS 2 (GE-1E),GEO,22045.38872963,1 25049U 97071A   22045.38872963 -.00000289  00000-0  00000-0 0    17\,2 25049   9.3419  44.6871 0004827 343.4834  18.5443  0.99405362 88388,9.3419,0.0004827,0.99405362,44.6871,343.4834,18.5443
25049,SIRIUS 2 (GE-1E),GEO,22046.39284216,1 25049U 97071A   22046.39284216 -.00000274  00000-0  00000-0 0    11\,2 25049   9.3436  44.6812 0004871 343.8575  17.5103  0.99404819 88396,9.3436,0.0004871,0.99404819,44.6812,343.8575,17.5103
25049,SIRIUS 2 (GE-1E),GEO,22047.39703272,1 25049U 97071A   22047.39703272 -.00000256  00000-0  00000-0 0    10\,2 25049   9.3453  44.6752 0004908 344.1615  16.5738  0.99404307 88405,9.3453,0.0004908,0.99404307,44.6752,344.1615,16.5738
25049,SIRIUS 2 (GE-1E),GEO,22047.90223295,1 25049U 97071A   22047.90223295 -.00000246  00000-0  00000-0 0    18\,2 25049   9.3462  44.6722 0004932 344.3407 197.1885  0.99404046 88409,9.3462,0.0004932,0.99404046,44.6722,344.3407,197.1885
25049,SIRIUS 2 (GE-1E),GEO,22048.51310476,1 25049U 97071A   22048.51310476 -.00000234  00000-0  00000-0 0    11\,2 25049   9.3472  44.6686 0004942 344.3956  55.7441  0.99403750 88418,9.3472,0.0004942,0.9940375,44.6686,344.3956,55.7441
25049,SIRIUS 2 (GE-1E),GEO,22048.97966096,1 25049U 97071A   22048.97966096 -.00000224  00000-0  00000-0 0    15\,2 25049   9.3480  44.6658 0004976 344.6514 222.4519  0.99403511 88410,9.348,0.0004976,0.99403511,44.6658,344.6514,222.4519
25049,SIRIUS 2 (GE-1E),GEO,22049.88591285,1 25049U 97071A   22049.88591285 -.00000203  00000-0  00000+0 0  9903\,2 25049   9.3495  44.6605 0005014 344.8844 186.5321  0.99403045 88503,9.3495,0.0005014,0.99403045,44.6605,344.8844,186.5321
25049,SIRIUS 2 (GE-1E),GEO,22051.41358936,1 25049U 97071A   22051.41358936 -.00000168  00000-0  00000-0 0    13\,2 25049   9.3520  44.6514 0005079 345.2635  12.8501  0.99402359 88435,9.352,0.0005079,0.99402359,44.6514,345.2635,12.8501
25049,SIRIUS 2 (GE-1E),GEO,22051.91564670,1 25049U 97071A   22051.91564670 -.00000156  00000-0  00000+0 0  9916\,2 25049   9.3528  44.6485 0005099 345.3889 192.3908  0.99402143 88520,9.3528,0.0005099,0.99402143,44.6485,345.3889,192.3908
25049,SIRIUS 2 (GE-1E),GEO,22052.41773314,1 25049U 97071A   22052.41773314 -.00000145  00000-0  00000-0 0    10\,2 25049   9.3537  44.6455 0005129 345.5425  11.9136  0.99401938 88440,9.3537,0.0005129,0.99401938,44.6455,345.5425,11.9136
25049,SIRIUS 2 (GE-1E),GEO,22053.42185466,1 25049U 97071A   22053.42185466 -.00000121  00000-0  00000-0 0    11\,2 25049   9.3553  44.6395 0005176 345.7851  11.0038  0.99401543 88453,9.3553,0.0005176,0.99401543,44.6395,345.7851,11.0038
25049,SIRIUS 2 (GE-1E),GEO,22053.96577123,1 25049U 97071A   22053.96577123 -.00000109  00000-0  00000+0 0  9929\,2 25049   9.3562  44.6362 0005199 345.9174 205.5156  0.99401345 88543,9.3562,0.0005199,0.99401345,44.6362,345.9174,205.5156
25049,SIRIUS 2 (GE-1E),GEO,22054.49769385,1 25049U 97071A   22054.49769385 -.00000097  00000-0  00000-0 0    19\,2 25049   9.3570  44.6329 0005228 346.0839  35.7006  0.99401153 88474,9.357,0.0005228,0.99401153,44.6329,346.0839,35.7006
25049,SIRIUS 2 (GE-1E),GEO,22055.50138764,1 25049U 97071A   22055.50138764 -.00000076  00000-0  00000-0 0    10\,2 25049   9.3586  44.6267 0005286 346.4227  34.5381  0.99400824 88489,9.3586,0.0005286,0.99400824,44.6267,346.4227,34.5381
